GLOBALSTAR M023         
1 25621U 99004A   25350.07219723 -.00000061  00000+0  23640-3 0  9999
2 25621  52.0088 219.5941 0009967 164.1847   0.2511 12.62510467238707
GLOBALSTAR M040         
1 25622U 99004B   25350.03339542 -.00000086  00000+0  10078-3 0  9996
2 25622  51.9900 224.1345 0001927  71.1273  69.1475 12.62025054238219
GLOBALSTAR M036         
1 25623U 99004C   25350.31784914 -.00000091  00000+0 -12300-3 0  9992
2 25623  51.9956 120.2545 0010861  43.8131 332.1407 11.86618293200603
GLOBALSTAR M038         
1 25624U 99004D   25350.17398449 -.00000079  00000+0  13236-3 0  9995
2 25624  51.9979 267.4667 0002620  66.9725  77.0897 12.32537441224811
GLOBALSTAR M022         
1 25649U 99012A   25350.21979953 -.00000034  00000+0  63713-3 0  9997
2 25649  52.0010 156.0494 0003204 150.9316  20.3645 12.02508173198275
GLOBALSTAR M041         
1 25650U 99012B   25350.30616061 -.00000091  00000+0 -77620-4 0  9994
2 25650  52.0037  42.8181 0000768 327.9086  32.1704 11.96681237200088
GLOBALSTAR M046         
1 25651U 99012C   25350.32636377 -.00000197  00000+0 -11957-2 0  9995
2 25651  52.0052  99.2448 0001474 234.4515 159.7694 12.09416205205706
GLOBALSTAR M037         
1 25652U 99012D   25350.19887302 -.00000074  00000+0  16343-3 0  9995
2 25652  52.0027 349.7579 0001780 227.3049 214.0175 12.62458383234264
